$$SOE
2460154.500000000, A.D. 2023-Jul-29 00:00:00.0000, -4.231894658238994E+08, -2.875259978551236E+06, -7.597642499258654E+06,
2460161.500000000, A.D. 2023-Aug-05 00:00:00.0000, -4.273350791470560E+08, -1.262425178869298E+07, -8.791775265241180E+06,
2460168.500000000, A.D. 2023-Aug-12 00:00:00.0000, -4.312154213512798E+08, -2.236545186926227E+07, -9.980450771367662E+06,
2460175.500000000, A.D. 2023-Aug-19 00:00:00.0000, -4.348359994280128E+08, -3.209322295352399E+07, -1.116311380150781E+07,
2460182.500000000, A.D. 2023-Aug-26 00:00:00.0000, -4.382022202168901E+08, -4.180226462078711E+07, -1.233924620658261E+07,
2460189.500000000, A.D. 2023-Sep-02 00:00:00.0000, -4.413193866797801E+08, -5.148759130489139E+07, -1.350836430774723E+07,
2460196.500000000, A.D. 2023-Sep-09 00:00:00.0000, -4.441926951889172E+08, -6.114451182959700E+07, -1.467001649151449E+07,
2460203.500000000, A.D. 2023-Sep-16 00:00:00.0000, -4.468272335147178E+08, -7.076861045140401E+07, -1.582378100550641E+07,
2460210.500000000, A.D. 2023-Sep-23 00:00:00.0000, -4.492279789690340E+08, -8.035572904614367E+07, -1.696926395845209E+07,
2460217.500000000, A.D. 2023-Sep-30 00:00:00.0000, -4.513997969313715E+08, -8.990194917341769E+07, -1.810609738524583E+07,
2460224.500000000, A.D. 2023-Oct-07 00:00:00.0000, -4.533474420142691E+08, -9.940357448935340E+07, -1.923393719536791E+07,
2460231.500000000, A.D. 2023-Oct-14 00:00:00.0000, -4.550755607445781E+08, -1.088571167513623E+08, -2.035246136131987E+07,
2460238.500000000, A.D. 2023-Oct-21 00:00:00.0000, -4.565886924595683E+08, -1.182592837442649E+08, -2.146136850308891E+07,
2460245.500000000, A.D. 2023-Oct-28 00:00:00.0000, -4.578912697769574E+08, -1.276069668025799E+08, -2.256037654433436E+07,
2460252.500000000, A.D. 2023-Nov-04 00:00:00.0000, -4.589876198318689E+08, -1.368972286391023E+08, -2.364922138027819E+07,
2460259.500000000, A.D. 2023-Nov-11 00:00:00.0000, -4.598819660551955E+08, -1.461272920233813E+08, -2.472765561505809E+07,
2460266.500000000, A.D. 2023-Nov-18 00:00:00.0000, -4.605784302331337E+08, -1.552945293208940E+08, -2.579544738690165E+07,
2460273.500000000, A.D. 2023-Nov-25 00:00:00.0000, -4.610810347396539E+08, -1.643964528196477E+08, -2.685237927932978E+07,
2460280.500000000, A.D. 2023-Dec-02 00:00:00.0000, -4.613937048829246E+08, -1.734307058078979E+08, -2.789824731571930E+07,
2460287.500000000, A.D. 2023-Dec-09 00:00:00.0000, -4.615202712613665E+08, -1.823950544175546E+08, -2.893286004351347E+07,
2460294.500000000, A.D. 2023-Dec-16 00:00:00.0000, -4.614644718191813E+08, -1.912873801792848E+08, -2.995603772825791E+07,
2460301.500000000, A.D. 2023-Dec-23 00:00:00.0000, -4.612299532335285E+08, -2.001056725629963E+08, -3.096761162851003E+07,
2460308.500000000, A.D. 2023-Dec-30 00:00:00.0000, -4.608202729567100E+08, -2.088480204180215E+08, -3.196742313858965E+07,
2460315.500000000, A.D. 2024-Jan-06 00:00:00.0000, -4.602389036714757E+08, -2.175126046400636E+08, -3.295532282559416E+07,
2460322.500000000, A.D. 2024-Jan-13 00:00:00.0000, -4.594892369752296E+08, -2.260976938404633E+08, -3.393116979581212E+07,
2460329.500000000, A.D. 2024-Jan-20 00:00:00.0000, -4.585745850592149E+08, -2.346016399031773E+08, -3.489483124718866E+07,
2460336.500000000, A.D. 2024-Jan-27 00:00:00.0000, -4.574981824011887E+08, -2.430228727496130E+08, -3.584618196508956E+07,
2460343.500000000, A.D. 2024-Feb-03 00:00:00.0000, -4.562631878915044E+08, -2.513598952357044E+08, -3.678510379671444E+07,
2460350.500000000, A.D. 2024-Feb-10 00:00:00.0000, -4.548726871096682E+08, -2.596112784506977E+08, -3.771148515105137E+07,
2460357.500000000, A.D. 2024-Feb-17 00:00:00.0000, -4.533296946093733E+08, -2.677756573892802E+08, -3.862522053438655E+07,
2460364.500000000, A.D. 2024-Feb-24 00:00:00.0000, -4.516371561737984E+08, -2.758517269624655E+08, -3.952621012145987E+07,
2460371.500000000, A.D. 2024-Mar-02 00:00:00.0000, -4.497979510098023E+08, -2.838382383608073E+08, -4.041435936561170E+07,
2460378.500000000, A.D. 2024-Mar-09 00:00:00.0000, -4.478148937403051E+08, -2.917339958150145E+08, -4.128957866382506E+07,
2460385.500000000, A.D. 2024-Mar-16 00:00:00.0000, -4.456907357978768E+08, -2.995378535401818E+08, -4.215178309491023E+07,
2460392.500000000, A.D. 2024-Mar-23 00:00:00.0000, -4.434281663216305E+08, -3.072487117392113E+08, -4.300089212889878E+07,
2460399.500000000, A.D. 2024-Mar-30 00:00:00.0000, -4.410298147972328E+08, -3.148655116780814E+08, -4.383682910259563E+07,
2460406.500000000, A.D. 2024-Apr-06 00:00:00.0000, -4.384982551834141E+08, -3.223872331880581E+08, -4.465952075855371E+07,
2460413.500000000, A.D. 2024-Apr-13 00:00:00.0000, -4.358360079744358E+08, -3.298128937468014E+08, -4.546889710356469E+07,
2460420.500000000, A.D. 2024-Apr-20 00:00:00.0000, -4.330455411511332E+08, -3.371415464500479E+08, -4.626489127920817E+07,
2460427.500000000, A.D. 2024-Apr-27 00:00:00.0000, -4.301292715373713E+08, -3.443722774242034E+08, -4.704743934978160E+07,
2460434.500000000, A.D. 2024-May-04 00:00:00.0000, -4.270895664738550E+08, -3.515042033733932E+08, -4.781648007188778E+07,
2460441.500000000, A.D. 2024-May-11 00:00:00.0000, -4.239287455713276E+08, -3.585364693540085E+08, -4.857195467474665E+07,
2460448.500000000, A.D. 2024-May-18 00:00:00.0000, -4.206490824620990E+08, -3.654682467470366E+08, -4.931380665595569E+07,
2460455.500000000, A.D. 2024-May-25 00:00:00.0000, -4.172528065264174E+08, -3.722987314276467E+08, -5.004198159454834E+07,
2460462.500000000, A.D. 2024-Jun-01 00:00:00.0000, -4.137421045352259E+08, -3.790271421822246E+08, -5.075642699055280E+07,
2460469.500000000, A.D. 2024-Jun-08 00:00:00.0000, -4.101191219644248E+08, -3.856527193889932E+08, -5.145709215457381E+07,
2460476.500000000, A.D. 2024-Jun-15 00:00:00.0000, -4.063859635826465E+08, -3.921747234106582E+08, -5.214392813856247E+07,
2460483.500000000, A.D. 2024-Jun-22 00:00:00.0000, -4.025446943190982E+08, -3.985924315176837E+08, -5.281688751860508E+07,
2460490.500000000, A.D. 2024-Jun-29 00:00:00.0000, -3.985973425341685E+08, -4.049051351573205E+08, -5.347592398307231E+07,
2460497.500000000, A.D. 2024-Jul-06 00:00:00.0000, -3.945459030492727E+08, -4.111121400348000E+08, -5.412099217002010E+07,
2460504.500000000, A.D. 2024-Jul-13 00:00:00.0000, -3.903923379886810E+08, -4.172127661781493E+08, -5.475204770126861E+07,
2460511.500000000, A.D. 2024-Jul-20 00:00:00.0000, -3.861385774206313E+08, -4.232063468331749E+08, -5.536904713652787E+07,
2460518.500000000, A.D. 2024-Jul-27 00:00:00.0000, -3.817865204548659E+08, -4.290922271435571E+08, -5.597194786526749E+07,
2460525.500000000, A.D. 2024-Aug-03 00:00:00.0000, -3.773380365247424E+08, -4.348697629870593E+08, -5.656070799163997E+07,
2460532.500000000, A.D. 2024-Aug-10 00:00:00.0000, -3.727949666894402E+08, -4.405383199688076E+08, -5.713528622784102E+07,
2460539.500000000, A.D. 2024-Aug-17 00:00:00.0000, -3.681591249105110E+08, -4.460972725465869E+08, -5.769564179838571E+07,
2460546.500000000, A.D. 2024-Aug-24 00:00:00.0000, -3.634322992766340E+08, -4.515460033070381E+08, -5.824173435962203E+07,
2460553.500000000, A.D. 2024-Aug-31 00:00:00.0000, -3.586162530626075E+08, -4.568839024507822E+08, -5.877352395003936E+07,
2460560.500000000, A.D. 2024-Sep-07 00:00:00.0000, -3.537127252585490E+08, -4.621103673565876E+08, -5.929097099445069E+07,
2460567.500000000, A.D. 2024-Sep-14 00:00:00.0000, -3.487234304851914E+08, -4.672248012251805E+08, -5.979403628829288E+07,
2460574.500000000, A.D. 2024-Sep-21 00:00:00.0000, -3.436500603247202E+08, -4.722266103867614E+08, -6.028268074200085E+07,
2460581.500000000, A.D. 2024-Sep-28 00:00:00.0000, -3.384942865549445E+08, -4.771152034973791E+08, -6.075686510438043E+07,
2460588.500000000, A.D. 2024-Oct-05 00:00:00.0000, -3.332577626180480E+08, -4.818899926211356E+08, -6.121655000150415E+07,
2460595.500000000, A.D. 2024-Oct-12 00:00:00.0000, -3.279421236861894E+08, -4.865503932168686E+08, -6.166169601458028E+07,
2460602.500000000, A.D. 2024-Oct-19 00:00:00.0000, -3.225489870765715E+08, -4.910958232984195E+08, -6.209226365827817E+07,
2460609.500000000, A.D. 2024-Oct-26 00:00:00.0000, -3.170799530498381E+08, -4.955257025679479E+08, -6.250821332190990E+07,
2460616.500000000, A.D. 2024-Nov-02 00:00:00.0000, -3.115366057357296E+08, -4.998394516687549E+08, -6.290950520903894E+07,
2460623.500000000, A.D. 2024-Nov-09 00:00:00.0000, -3.059205140905436E+08, -5.040364915350890E+08, -6.329609928251201E+07,
2460630.500000000, A.D. 2024-Nov-16 00:00:00.0000, -3.002332328616127E+08, -5.081162428369637E+08, -6.366795521708289E+07,
2460637.500000000, A.D. 2024-Nov-23 00:00:00.0000, -2.944763035129846E+08, -5.120781255682474E+08, -6.402503236780080E+07,
2460644.500000000, A.D. 2024-Nov-30 00:00:00.0000, -2.886512549051134E+08, -5.159215588191029E+08, -6.436728977652356E+07,
2460651.500000000, A.D. 2024-Dec-07 00:00:00.0000, -2.827596033102267E+08, -5.196459603106564E+08, -6.469468622040063E+07,
2460658.500000000, A.D. 2024-Dec-14 00:00:00.0000, -2.768028524530383E+08, -5.232507444663816E+08, -6.500718013884819E+07,
2460665.500000000, A.D. 2024-Dec-21 00:00:00.0000, -2.707824958961507E+08, -5.267353202594151E+08, -6.530472932742536E+07,
2460672.500000000, A.D. 2024-Dec-28 00:00:00.0000, -2.647000197984017E+08, -5.300990918021522E+08, -6.558729082178587E+07,
2460679.500000000, A.D. 2025-Jan-04 00:00:00.0000, -2.585569034501359E+08, -5.333414593015086E+08, -6.585482101555148E+07,
2460686.500000000, A.D. 2025-Jan-11 00:00:00.0000, -2.523546194080649E+08, -5.364618187192669E+08, -6.610727570912847E+07,
2460693.500000000, A.D. 2025-Jan-18 00:00:00.0000, -2.460946341478054E+08, -5.394595610552537E+08, -6.634461008006623E+07,
2460700.500000000, A.D. 2025-Jan-25 00:00:00.0000, -2.397784089915567E+08, -5.423340717268777E+08, -6.656677863569543E+07,
2460707.500000000, A.D. 2025-Feb-01 00:00:00.0000, -2.334074011222910E+08, -5.450847300743484E+08, -6.677373516754305E+07,
2460714.500000000, A.D. 2025-Feb-08 00:00:00.0000, -2.269830646269787E+08, -5.477109089713466E+08, -6.696543271100214E+07,
$$EOE